0 BREEZE-M R/B
1 28925U 05052B   13282.17575971  .00000049  00000-0  00000+0 0   944
2 28925 018.0521 161.7094 5428643 264.5974 271.3785 01.94152921 55166
0 BREEZE-M R/B
1 28925U 05052B   13287.50117852 -.00000285  00000-0  00000+0 0   950
2 28925 018.0482 161.0284 5428769 265.8052 033.6160 01.94154824 55267
0 BREEZE-M R/B
1 28925U 05052B   13287.97771920 -.00000279  00000-0  00000+0 0   967
2 28925 018.0529 160.9425 5429369 265.9456 006.6908 01.94154777 55278
0 BREEZE-M R/B
1 28925U 05052B   13295.22536853  .00000139  00000-0  00000+0 0   973
2 28925 018.0515 160.0026 5429747 267.6025 032.4307 01.94151216 55424
